{
  "norad_id": 63759,
  "name": "STARLINK-11703 [DTC]",
  "history": [
    {
      "epoch": "2026-03-28T14:47:27.411072Z",
      "apogee_km": 357.798082538161,
      "perigee_km": 354.78375260225584,
      "latitude_deg": -1.8645758774776685e-05,
      "longitude_deg": 130.1269888761384,
      "height_km": 355.83316820847455,
      "semi_major_axis_km": 6734.427917570208,
      "eccentricity": 0.0002238,
      "inclination_deg": 43.0068,
      "raan_deg": 178.0254,
      "arg_perigee_deg": 278.8405,
      "mean_anomaly_deg": 81.2209,
      "mean_motion_rev_day": 15.70911427
    },
    {
      "epoch": "2026-03-30T04:56:27.561120Z",
      "apogee_km": 356.80259640028726,
      "perigee_km": 355.89478772899656,
      "latitude_deg": 9.59457238899153e-06,
      "longitude_deg": -93.27057215736507,
      "height_km": 356.17068575085864,
      "semi_major_axis_km": 6734.485692064642,
      "eccentricity": 6.74e-05,
      "inclination_deg": 43.0002,
      "raan_deg": 168.4452,
      "arg_perigee_deg": 263.6528,
      "mean_anomaly_deg": 96.4263,
      "mean_motion_rev_day": 15.70891212
    },
    {
      "epoch": "2026-03-30T06:28:01.412256Z",
      "apogee_km": 357.4041596965926,
      "perigee_km": 355.535979695459,
      "latitude_deg": 6.59982734024789e-06,
      "longitude_deg": -116.60739513554209,
      "height_km": 355.6776204969155,
      "semi_major_axis_km": 6734.607069696026,
      "eccentricity": 0.0001387,
      "inclination_deg": 43.001,
      "raan_deg": 168.0621,
      "arg_perigee_deg": 307.2069,
      "mean_anomaly_deg": 52.8672,
      "mean_motion_rev_day": 15.70848744
    },
    {
      "epoch": "2026-03-30T21:43:38.022816Z",
      "apogee_km": 356.9713080429374,
      "perigee_km": 355.5810557856639,
      "latitude_deg": -5.513586496449595e-05,
      "longitude_deg": 10.029082872866335,
      "height_km": 355.35239725122335,
      "semi_major_axis_km": 6734.4131819143,
      "eccentricity": 0.00010322,
      "inclination_deg": 43.0005,
      "raan_deg": 164.2279,
      "arg_perigee_deg": 0.645,
      "mean_anomaly_deg": 359.4418,
      "mean_motion_rev_day": 15.70916583
    },
    {
      "epoch": "2026-03-31T12:59:13.206048Z",
      "apogee_km": 357.60951925528207,
      "perigee_km": 355.2917435760537,
      "latitude_deg": 6.21272693162923e-05,
      "longitude_deg": 136.67461536877056,
      "height_km": 356.3179573841263,
      "semi_major_axis_km": 6734.587631415668,
      "eccentricity": 0.00017208,
      "inclination_deg": 43.0008,
      "raan_deg": 160.3966,
      "arg_perigee_deg": 265.32,
      "mean_anomaly_deg": 94.7472,
      "mean_motion_rev_day": 15.70855545
    },
    {
      "epoch": "2026-04-01T04:14:49.118496Z",
      "apogee_km": 356.7434199607742,
      "perigee_km": 355.326954182945,
      "latitude_deg": -2.9257039043634267e-05,
      "longitude_deg": -96.68402134657104,
      "height_km": 356.4798732997497,
      "semi_major_axis_km": 6734.172187071859,
      "eccentricity": 0.00010517,
      "inclination_deg": 42.9999,
      "raan_deg": 156.5644,
      "arg_perigee_deg": 198.062,
      "mean_anomaly_deg": 162.021,
      "mean_motion_rev_day": 15.71000911
    },
    {
      "epoch": "2026-04-02T13:49:07.176000Z",
      "apogee_km": 357.1831523128276,
      "perigee_km": 355.4295032702703,
      "latitude_deg": 2.206010571458402e-05,
      "longitude_deg": 109.9290551783951,
      "height_km": 355.869033713863,
      "semi_major_axis_km": 6734.443327791549,
      "eccentricity": 0.0001302,
      "inclination_deg": 42.999,
      "raan_deg": 148.1314,
      "arg_perigee_deg": 283.8258,
      "mean_anomaly_deg": 76.2465,
      "mean_motion_rev_day": 15.70906035
    },
    {
      "epoch": "2026-04-04T11:35:55.263264Z",
      "apogee_km": 356.9828002876884,
      "perigee_km": 355.1471915076472,
      "latitude_deg": 3.386351086502453e-05,
      "longitude_deg": 129.85158513800639,
      "height_km": 355.8588558154296,
      "semi_major_axis_km": 6734.201995897668,
      "eccentricity": 0.00013629,
      "inclination_deg": 42.9995,
      "raan_deg": 136.6344,
      "arg_perigee_deg": 268.6563,
      "mean_anomaly_deg": 91.4149,
      "mean_motion_rev_day": 15.7099048
    },
    {
      "epoch": "2026-04-05T12:00:53.470368Z",
      "apogee_km": 357.99352955658287,
      "perigee_km": 354.7322806325428,
      "latitude_deg": 5.45640320396406e-05,
      "longitude_deg": 116.47593980940194,
      "height_km": 356.3329898879362,
      "semi_major_axis_km": 6734.499905094563,
      "eccentricity": 0.00024213,
      "inclination_deg": 42.9994,
      "raan_deg": 130.504,
      "arg_perigee_deg": 263.0618,
      "mean_anomaly_deg": 96.9975,
      "mean_motion_rev_day": 15.70886239
    },
    {
      "epoch": "2026-04-06T03:16:28.398720Z",
      "apogee_km": 360.3428697176623,
      "perigee_km": 352.69337904118674,
      "latitude_deg": 1.2239466023363251e-05,
      "longitude_deg": -116.88213506265858,
      "height_km": 355.0864028080741,
      "semi_major_axis_km": 6734.655124379425,
      "eccentricity": 0.00056792,
      "inclination_deg": 42.9989,
      "raan_deg": 126.6682,
      "arg_perigee_deg": 288.3872,
      "mean_anomaly_deg": 71.6378,
      "mean_motion_rev_day": 15.70831931
    },
    {
      "epoch": "2026-04-07T09:47:40.037856Z",
      "apogee_km": 358.219084303787,
      "perigee_km": 354.24836463722477,
      "latitude_deg": -2.777196916252969e-06,
      "longitude_deg": 136.401841439614,
      "height_km": 356.23171468929354,
      "semi_major_axis_km": 6734.370724470506,
      "eccentricity": 0.00029481,
      "inclination_deg": 43.0027,
      "raan_deg": 119.0041,
      "arg_perigee_deg": 263.517,
      "mean_anomaly_deg": 96.5362,
      "mean_motion_rev_day": 15.70931439
    },
    {
      "epoch": "2026-04-08T10:12:37.854432Z",
      "apogee_km": 357.4239183637037,
      "perigee_km": 355.2488181552235,
      "latitude_deg": 2.7419892640639004e-05,
      "longitude_deg": 123.02623622852572,
      "height_km": 356.1221983453609,
      "semi_major_axis_km": 6734.473368259463,
      "eccentricity": 0.00016149,
      "inclination_deg": 43.0018,
      "raan_deg": 112.8721,
      "arg_perigee_deg": 269.3144,
      "mean_anomaly_deg": 90.7539,
      "mean_motion_rev_day": 15.70895524
    },
    {
      "epoch": "2026-04-09T10:37:34.946976Z",
      "apogee_km": 357.5533870171221,
      "perigee_km": 355.1485013722504,
      "latitude_deg": -2.1388671618751017e-05,
      "longitude_deg": 109.65377182261604,
      "height_km": 355.9886141875531,
      "semi_major_axis_km": 6734.487944194686,
      "eccentricity": 0.00017855,
      "inclination_deg": 43.0021,
      "raan_deg": 106.7403,
      "arg_perigee_deg": 276.4623,
      "mean_anomaly_deg": 83.6041,
      "mean_motion_rev_day": 15.70890424
    },
    {
      "epoch": "2026-04-10T00:21:37.005696Z",
      "apogee_km": 357.1231930615704,
      "perigee_km": 355.3508405078328,
      "latitude_deg": -4.352582411174827e-05,
      "longitude_deg": -100.36816288637858,
      "height_km": 356.50398950987665,
      "semi_major_axis_km": 6734.374016784701,
      "eccentricity": 0.00013159,
      "inclination_deg": 42.9999,
      "raan_deg": 103.291,
      "arg_perigee_deg": 236.052,
      "mean_anomaly_deg": 124.0222,
      "mean_motion_rev_day": 15.70930287
    },
    {
      "epoch": "2026-04-11T16:02:11.374944Z",
      "apogee_km": 357.0130173873349,
      "perigee_km": 355.8048398477422,
      "latitude_deg": -8.077421984304481e-06,
      "longitude_deg": 12.893522128445323,
      "height_km": 355.57992135264294,
      "semi_major_axis_km": 6734.545928617538,
      "eccentricity": 8.97e-05,
      "inclination_deg": 43.0004,
      "raan_deg": 93.3253,
      "arg_perigee_deg": 353.6565,
      "mean_anomaly_deg": 6.4291,
      "mean_motion_rev_day": 15.70870136
    },
    {
      "epoch": "2026-04-12T22:33:22.323744Z",
      "apogee_km": 357.0444990313763,
      "perigee_km": 355.45653045539893,
      "latitude_deg": 1.4873893756870375e-05,
      "longitude_deg": -93.82027426092027,
      "height_km": 356.6597570134666,
      "semi_major_axis_km": 6734.387514743387,
      "eccentricity": 0.0001179,
      "inclination_deg": 42.9956,
      "raan_deg": 85.6605,
      "arg_perigee_deg": 143.6448,
      "mean_anomaly_deg": 216.45,
      "mean_motion_rev_day": 15.70925564
    },
    {
      "epoch": "2026-04-14T09:39:15.577632Z",
      "apogee_km": 356.79252455252845,
      "perigee_km": 355.7744148659176,
      "latitude_deg": 2.3876394083709136e-05,
      "longitude_deg": 89.45071648698605,
      "height_km": 356.2475506248341,
      "semi_major_axis_km": 6734.420469709223,
      "eccentricity": 7.559e-05,
      "inclination_deg": 42.9954,
      "raan_deg": 76.8448,
      "arg_perigee_deg": 112.4306,
      "mean_anomaly_deg": 247.6642,
      "mean_motion_rev_day": 15.70914033
    },
    {
      "epoch": "2026-04-15T14:38:53.242080Z",
      "apogee_km": 356.9767080765696,
      "perigee_km": 356.0001873866495,
      "latitude_deg": -7.4123503519871775e-06,
      "longitude_deg": 6.0715171642418815,
      "height_km": 356.31786419217406,
      "semi_major_axis_km": 6734.62544773161,
      "eccentricity": 7.25e-05,
      "inclination_deg": 43.0004,
      "raan_deg": 69.5633,
      "arg_perigee_deg": 263.2335,
      "mean_anomaly_deg": 96.845,
      "mean_motion_rev_day": 15.70842314
    },
    {
      "epoch": "2026-04-16T05:54:28.183392Z",
      "apogee_km": 358.47428815400144,
      "perigee_km": 354.03767005936515,
      "latitude_deg": 1.8715254326811424e-05,
      "longitude_deg": 132.71596361724391,
      "height_km": 356.8448804333992,
      "semi_major_axis_km": 6734.392979106683,
      "eccentricity": 0.0003294,
      "inclination_deg": 43.0,
      "raan_deg": 65.73,
      "arg_perigee_deg": 248.4341,
      "mean_anomaly_deg": 111.6176,
      "mean_motion_rev_day": 15.70923652
    }
  ]
}